{
 "generated_at": "2026-07-15T07:14:44Z",
 "sources": [
  {
   "name": "CelesTrak",
   "url": "https://celestrak.org/NORAD/elements/",
   "license": "frei verfügbar; Attribution. Ursprünglich USSPACECOM/Space-Track."
  },
  {
   "name": "GCAT (J. McDowell, planet4589.org)",
   "url": "https://planet4589.org/space/gcat/",
   "license": "CC-BY 4.0"
  }
 ],
 "satellites": [
  {
   "norad": 60542,
   "name": "QPS-SAR-8 (AMATERU-IV)",
   "intl": "2024-149CC",
   "group": "sar",
   "gcat": {
    "class": "B",
    "category": "IMG-R",
    "owner": "QPS",
    "state": "J"
   },
   "omm": {
    "OBJECT_NAME": "QPS-SAR-8 (AMATERU-IV)",
    "OBJECT_ID": "2024-149CC",
    "EPOCH": "2026-07-14T19:10:40.216512",
    "MEAN_MOTION": 15.04393895,
    "ECCENTRICITY": 0.00038205,
    "INCLINATION": 97.6663,
    "RA_OF_ASC_NODE": 274.721,
    "ARG_OF_PERICENTER": 46.4789,
    "MEAN_ANOMALY": 313.6754,
    "EPHEMERIS_TYPE": 0,
    "CLASSIFICATION_TYPE": "U",
    "NORAD_CAT_ID": 60542,
    "ELEMENT_SET_NO": 999,
    "REV_AT_EPOCH": 10442,
    "BSTAR": 0.00015817907,
    "MEAN_MOTION_DOT": 0.00002147,
    "MEAN_MOTION_DDOT": 0
   }
  },
  {
   "norad": 63205,
   "name": "QPS-SAR-9 (SUSANOO-I)",
   "intl": "2025-050A",
   "group": "sar",
   "gcat": {
    "class": "B",
    "category": "IMG-R",
    "owner": "QPS",
    "state": "J"
   },
   "omm": {
    "OBJECT_NAME": "QPS-SAR-9 (SUSANOO-I)",
    "OBJECT_ID": "2025-050A",
    "EPOCH": "2026-07-14T18:11:38.226048",
    "MEAN_MOTION": 15.03393154,
    "ECCENTRICITY": 0.00053016,
    "INCLINATION": 42.0202,
    "RA_OF_ASC_NODE": 309.8562,
    "ARG_OF_PERICENTER": 321.091,
    "MEAN_ANOMALY": 38.9535,
    "EPHEMERIS_TYPE": 0,
    "CLASSIFICATION_TYPE": "U",
    "NORAD_CAT_ID": 63205,
    "ELEMENT_SET_NO": 999,
    "REV_AT_EPOCH": 7311,
    "BSTAR": 0.00018658101,
    "MEAN_MOTION_DOT": 0.00002391,
    "MEAN_MOTION_DDOT": 0
   }
  },
  {
   "norad": 32382,
   "name": "RADARSAT-2",
   "intl": "2007-061A",
   "group": "resource",
   "gcat": {
    "class": "C",
    "category": "IMG-R",
    "owner": "CSA",
    "state": "CA"
   },
   "omm": {
    "OBJECT_NAME": "RADARSAT-2",
    "OBJECT_ID": "2007-061A",
    "EPOCH": "2026-07-14T22:56:54.771072",
    "MEAN_MOTION": 14.29982628,
    "ECCENTRICITY": 0.00012937,
    "INCLINATION": 98.5778,
    "RA_OF_ASC_NODE": 202.4919,
    "ARG_OF_PERICENTER": 85.1441,
    "MEAN_ANOMALY": 274.9889,
    "EPHEMERIS_TYPE": 0,
    "CLASSIFICATION_TYPE": "U",
    "NORAD_CAT_ID": 32382,
    "ELEMENT_SET_NO": 999,
    "REV_AT_EPOCH": 96992,
    "BSTAR": -0.000054105581,
    "MEAN_MOTION_DOT": -0.00000183,
    "MEAN_MOTION_DDOT": 0
   }
  },
  {
   "norad": 37791,
   "name": "RASAT",
   "intl": "2011-044D",
   "group": "resource",
   "gcat": {
    "class": null,
    "category": null,
    "owner": null,
    "state": null
   },
   "omm": {
    "OBJECT_NAME": "RASAT",
    "OBJECT_ID": "2011-044D",
    "EPOCH": "2026-07-14T22:06:17.057664",
    "MEAN_MOTION": 14.68193205,
    "ECCENTRICITY": 0.00219114,
    "INCLINATION": 98.0586,
    "RA_OF_ASC_NODE": 286.895,
    "ARG_OF_PERICENTER": 103.4927,
    "MEAN_ANOMALY": 347.2414,
    "EPHEMERIS_TYPE": 0,
    "CLASSIFICATION_TYPE": "U",
    "NORAD_CAT_ID": 37791,
    "ELEMENT_SET_NO": 999,
    "REV_AT_EPOCH": 79725,
    "BSTAR": 0.000082439274,
    "MEAN_MOTION_DOT": 0.00000427,
    "MEAN_MOTION_DDOT": 0
   }
  },
  {
   "norad": 44322,
   "name": "RCM-1",
   "intl": "2019-033A",
   "group": "sar",
   "gcat": {
    "class": "C",
    "category": "IMG-R",
    "owner": "CSA",
    "state": "CA"
   },
   "omm": {
    "OBJECT_NAME": "RCM-1",
    "OBJECT_ID": "2019-033A",
    "EPOCH": "2026-07-14T23:18:45.722592",
    "MEAN_MOTION": 14.92586262,
    "ECCENTRICITY": 0.000152,
    "INCLINATION": 97.7603,
    "RA_OF_ASC_NODE": 203.0256,
    "ARG_OF_PERICENTER": 92.6853,
    "MEAN_ANOMALY": 350.7563,
    "EPHEMERIS_TYPE": 0,
    "CLASSIFICATION_TYPE": "U",
    "NORAD_CAT_ID": 44322,
    "ELEMENT_SET_NO": 999,
    "REV_AT_EPOCH": 38622,
    "BSTAR": 0.000051764335,
    "MEAN_MOTION_DOT": 0.00000477,
    "MEAN_MOTION_DDOT": 0
   }
  },
  {
   "norad": 44324,
   "name": "RCM-2",
   "intl": "2019-033C",
   "group": "sar",
   "gcat": {
    "class": "C",
    "category": "IMG-R",
    "owner": "CSA",
    "state": "CA"
   },
   "omm": {
    "OBJECT_NAME": "RCM-2",
    "OBJECT_ID": "2019-033C",
    "EPOCH": "2026-07-14T22:24:25.143840",
    "MEAN_MOTION": 14.92587082,
    "ECCENTRICITY": 0.00015241,
    "INCLINATION": 97.7603,
    "RA_OF_ASC_NODE": 203.0331,
    "ARG_OF_PERICENTER": 90.8344,
    "MEAN_ANOMALY": 269.305,
    "EPHEMERIS_TYPE": 0,
    "CLASSIFICATION_TYPE": "U",
    "NORAD_CAT_ID": 44324,
    "ELEMENT_SET_NO": 999,
    "REV_AT_EPOCH": 38622,
    "BSTAR": 0.000019489725,
    "MEAN_MOTION_DOT": 0.00000145,
    "MEAN_MOTION_DDOT": 0
   }
  },
  {
   "norad": 44323,
   "name": "RCM-3",
   "intl": "2019-033B",
   "group": "sar",
   "gcat": {
    "class": "C",
    "category": "IMG-R",
    "owner": "CSA",
    "state": "CA"
   },
   "omm": {
    "OBJECT_NAME": "RCM-3",
    "OBJECT_ID": "2019-033B",
    "EPOCH": "2026-07-14T23:28:58.720224",
    "MEAN_MOTION": 14.92586279,
    "ECCENTRICITY": 0.0001504,
    "INCLINATION": 97.7602,
    "RA_OF_ASC_NODE": 203.127,
    "ARG_OF_PERICENTER": 91.1429,
    "MEAN_ANOMALY": 268.9963,
    "EPHEMERIS_TYPE": 0,
    "CLASSIFICATION_TYPE": "U",
    "NORAD_CAT_ID": 44323,
    "ELEMENT_SET_NO": 999,
    "REV_AT_EPOCH": 38624,
    "BSTAR": 0.000010272894,
    "MEAN_MOTION_DOT": 5e-7,
    "MEAN_MOTION_DDOT": 0
   }
  },
  {
   "norad": 37387,
   "name": "RESOURCESAT-2",
   "intl": "2011-015A",
   "group": "resource",
   "gcat": {
    "class": null,
    "category": "IMG",
    "owner": "ISRO",
    "state": "IN"
   },
   "omm": {
    "OBJECT_NAME": "RESOURCESAT-2",
    "OBJECT_ID": "2011-015A",
    "EPOCH": "2026-07-14T21:21:55.986912",
    "MEAN_MOTION": 14.21599453,
    "ECCENTRICITY": 0.00115277,
    "INCLINATION": 98.7632,
    "RA_OF_ASC_NODE": 263.1388,
    "ARG_OF_PERICENTER": 171.8949,
    "MEAN_ANOMALY": 188.2417,
    "EPHEMERIS_TYPE": 0,
    "CLASSIFICATION_TYPE": "U",
    "NORAD_CAT_ID": 37387,
    "ELEMENT_SET_NO": 999,
    "REV_AT_EPOCH": 79011,
    "BSTAR": 0.00001329329,
    "MEAN_MOTION_DOT": -1.5e-7,
    "MEAN_MOTION_DDOT": 0
   }
  },
  {
   "norad": 41877,
   "name": "RESOURCESAT-2A",
   "intl": "2016-074A",
   "group": "resource",
   "gcat": {
    "class": "C",
    "category": "IMG",
    "owner": "ISRO",
    "state": "IN"
   },
   "omm": {
    "OBJECT_NAME": "RESOURCESAT-2A",
    "OBJECT_ID": "2016-074A",
    "EPOCH": "2026-07-14T22:36:48.843936",
    "MEAN_MOTION": 14.21607745,
    "ECCENTRICITY": 0.00024437,
    "INCLINATION": 98.7528,
    "RA_OF_ASC_NODE": 269.2182,
    "ARG_OF_PERICENTER": 29.2729,
    "MEAN_ANOMALY": 330.8585,
    "EPHEMERIS_TYPE": 0,
    "CLASSIFICATION_TYPE": "U",
    "NORAD_CAT_ID": 41877,
    "ELEMENT_SET_NO": 999,
    "REV_AT_EPOCH": 49824,
    "BSTAR": -0.000087345506,
    "MEAN_MOTION_DOT": -0.00000236,
    "MEAN_MOTION_DDOT": 0
   }
  },
  {
   "norad": 29228,
   "name": "RESURS-DK 1",
   "intl": "2006-021A",
   "group": "resource",
   "gcat": {
    "class": null,
    "category": null,
    "owner": null,
    "state": null
   },
   "omm": {
    "OBJECT_NAME": "RESURS-DK 1",
    "OBJECT_ID": "2006-021A",
    "EPOCH": "2026-07-14T14:23:11.394816",
    "MEAN_MOTION": 15.13317802,
    "ECCENTRICITY": 0.0007075,
    "INCLINATION": 69.9308,
    "RA_OF_ASC_NODE": 268.5885,
    "ARG_OF_PERICENTER": 271.7724,
    "MEAN_ANOMALY": 88.2632,
    "EPHEMERIS_TYPE": 0,
    "CLASSIFICATION_TYPE": "U",
    "NORAD_CAT_ID": 29228,
    "ELEMENT_SET_NO": 999,
    "REV_AT_EPOCH": 10672,
    "BSTAR": 0.000057623,
    "MEAN_MOTION_DOT": 0.0000092,
    "MEAN_MOTION_DDOT": 0
   }
  }
 ]
}
