RESURS-DK 1             
1 29228U 06021A   26195.59943744  .00000920  00000+0  57623-4 0  9997
2 29228  69.9308 268.5885 0007075 271.7724  88.2632 15.13317802106727
RADARSAT-2              
1 32382U 07061A   26195.95618948 -.00000183  00000+0 -54106-4 0  9998
2 32382  98.5778 202.4919 0001293  85.1441 274.9889 14.29982628969922
RESOURCESAT-2           
1 37387U 11015A   26195.89023133 -.00000015  00000+0  13293-4 0  9996
2 37387  98.7632 263.1388 0011527 171.8949 188.2417 14.21599453790113
RASAT                   
1 37791U 11044D   26195.92103076  .00000427  00000+0  82439-4 0  9990
2 37791  98.0586 286.8950 0021911 103.4927 347.2414 14.68193205797257
RESOURCESAT-2A          
1 41877U 16074A   26195.94223199 -.00000236  00000+0 -87346-4 0  9991
2 41877  98.7528 269.2182 0002443  29.2729 330.8585 14.21607745498248
RCM-1                   
1 44322U 19033A   26195.97136253  .00000477  00000+0  51764-4 0  9994
2 44322  97.7603 203.0256 0001520  92.6853 350.7563 14.92586262386223
RCM-3                   
1 44323U 19033B   26195.97845741  .00000050  00000+0  10273-4 0  9991
2 44323  97.7602 203.1270 0001504  91.1429 268.9963 14.92586279386249
RCM-2                   
1 44324U 19033C   26195.93362435  .00000145  00000+0  19490-4 0  9997
2 44324  97.7603 203.0331 0001524  90.8344 269.3050 14.92587082386225
QPS-SAR-8 (AMATERU-IV)  
1 60542U 24149CC  26195.79907658  .00002147  00000+0  15818-3 0  9990
2 60542  97.6663 274.7210 0003820  46.4789 313.6754 15.04393895104427
QPS-SAR-9 (SUSANOO-I)   
1 63205U 25050A   26195.75808132  .00002391  00000+0  18658-3 0  9990
2 63205  42.0202 309.8562 0005301 321.0910  38.9535 15.03393154 73115
